{
  "type": "FeatureCollection",
  "features": [
    {
      "type": "Feature",
      "properties": {
        "norad_id": 29780,
        "name": "FENGYUN 1C DEB",
        "group": "fengyun-1c-debris",
        "lat": 65.56629173938164,
        "lon": 118.7328060625815,
        "alt_km": 785.9764618902827,
        "timestamp": "2025-12-22T05:49:03.770711+00:00",
        "meta_object_name": "FENGYUN 1C DEB",
        "meta_object_id": "1999-025BW",
        "meta_epoch": "2025-12-21T12:23:39.749856",
        "meta_mean_motion": 14.21095207,
        "meta_eccentricity": 0.0041476,
        "meta_inclination": 99.2786,
        "meta_ra_of_asc_node": 276.8816,
        "meta_arg_of_pericenter": 102.6846,
        "meta_mean_anomaly": 257.8971,
        "meta_ephemeris_type": 0,
        "meta_classification_type": "U",
        "meta_norad_cat_id": 29780,
        "meta_element_set_no": 999,
        "meta_rev_at_epoch": 97203,
        "meta_bstar": 0.0012899,
        "meta_mean_motion_dot": 2.778e-05,
        "meta_mean_motion_ddot": 0,
        "tle_line1": "1 29780U 99025BW  25355.51643229  .00002778  00000+0  12899-2 0  9997",
        "tle_line2": "2 29780  99.2786 276.8816 0041476 102.6846 257.8971 14.21095207972037"
      },
      "geometry": {
        "type": "Point",
        "coordinates": [
          118.7328060625815,
          65.56629173938164
        ]
      }
    },
    {
      "type": "Feature",
      "properties": {
        "norad_id": 29781,
        "name": "FENGYUN 1C DEB",
        "group": "fengyun-1c-debris",
        "lat": -61.52749510224348,
        "lon": 153.5103389374014,
        "alt_km": 888.07944415763,
        "timestamp": "2025-12-22T05:49:03.770722+00:00",
        "meta_object_name": "FENGYUN 1C DEB",
        "meta_object_id": "1999-025BX",
        "meta_epoch": "2025-12-21T06:31:41.841984",
        "meta_mean_motion": 14.0524653,
        "meta_eccentricity": 0.0072242,
        "meta_inclination": 98.8101,
        "meta_ra_of_asc_node": 349.1839,
        "meta_arg_of_pericenter": 149.2895,
        "meta_mean_anomaly": 226.2548,
        "meta_ephemeris_type": 0,
        "meta_classification_type": "U",
        "meta_norad_cat_id": 29781,
        "meta_element_set_no": 999,
        "meta_rev_at_epoch": 96763,
        "meta_bstar": 0.00069812,
        "meta_mean_motion_dot": 1.113e-05,
        "meta_mean_motion_ddot": 0,
        "tle_line1": "1 29781U 99025BX  25355.27201206  .00001113  00000+0  69812-3 0  9996",
        "tle_line2": "2 29781  98.8101 349.1839 0072242 149.2895 226.2548 14.05246530967638"
      },
      "geometry": {
        "type": "Point",
        "coordinates": [
          153.5103389374014,
          -61.52749510224348
        ]
      }
    },
    {
      "type": "Feature",
      "properties": {
        "norad_id": 29782,
        "name": "FENGYUN 1C DEB",
        "group": "fengyun-1c-debris",
        "lat": 39.92746554170385,
        "lon": -122.32019735462512,
        "alt_km": 818.3549164739634,
        "timestamp": "2025-12-22T05:49:03.770732+00:00",
        "meta_object_name": "FENGYUN 1C DEB",
        "meta_object_id": "1999-025BY",
        "meta_epoch": "2025-12-21T17:51:09.281088",
        "meta_mean_motion": 14.1170216,
        "meta_eccentricity": 0.0055752,
        "meta_inclination": 99.0994,
        "meta_ra_of_asc_node": 49.4659,
        "meta_arg_of_pericenter": 178.3853,
        "meta_mean_anomaly": 309.0947,
        "meta_ephemeris_type": 0,
        "meta_classification_type": "U",
        "meta_norad_cat_id": 29782,
        "meta_element_set_no": 999,
        "meta_rev_at_epoch": 96798,
        "meta_bstar": 0.0011259,
        "meta_mean_motion_dot": 2.034e-05,
        "meta_mean_motion_ddot": 0,
        "tle_line1": "1 29782U 99025BY  25355.74385742  .00002034  00000+0  11259-2 0  9991",
        "tle_line2": "2 29782  99.0994  49.4659 0055752 178.3853 309.0947 14.11702160967980"
      },
      "geometry": {
        "type": "Point",
        "coordinates": [
          -122.32019735462512,
          39.92746554170385
        ]
      }
    },
    {
      "type": "Feature",
      "properties": {
        "norad_id": 29784,
        "name": "FENGYUN 1C DEB",
        "group": "fengyun-1c-debris",
        "lat": -37.549896327925026,
        "lon": 88.35517363839638,
        "alt_km": 769.3958863079615,
        "timestamp": "2025-12-22T05:49:03.770742+00:00",
        "meta_object_name": "FENGYUN 1C DEB",
        "meta_object_id": "1999-025CA",
        "meta_epoch": "2025-12-21T19:02:32.137728",
        "meta_mean_motion": 14.3060586,
        "meta_eccentricity": 0.0059161,
        "meta_inclination": 98.9466,
        "meta_ra_of_asc_node": 274.8488,
        "meta_arg_of_pericenter": 270.6379,
        "meta_mean_anomaly": 156.8779,
        "meta_ephemeris_type": 0,
        "meta_classification_type": "U",
        "meta_norad_cat_id": 29784,
        "meta_element_set_no": 999,
        "meta_rev_at_epoch": 98489,
        "meta_bstar": 0.0003756,
        "meta_mean_motion_dot": 9.52e-06,
        "meta_mean_motion_ddot": 0,
        "tle_line1": "1 29784U 99025CA  25355.79342752  .00000952  00000+0  37560-3 0  9993",
        "tle_line2": "2 29784  98.9466 274.8488 0059161 270.6379 156.8779 14.30605860984895"
      },
      "geometry": {
        "type": "Point",
        "coordinates": [
          88.35517363839638,
          -37.549896327925026
        ]
      }
    },
    {
      "type": "Feature",
      "properties": {
        "norad_id": 29786,
        "name": "FENGYUN 1C DEB",
        "group": "fengyun-1c-debris",
        "lat": 37.209937691988536,
        "lon": -160.12582376285042,
        "alt_km": 897.9622320883727,
        "timestamp": "2025-12-22T05:49:03.770753+00:00",
        "meta_object_name": "FENGYUN 1C DEB",
        "meta_object_id": "1999-025CC",
        "meta_epoch": "2025-12-21T07:17:36.157344",
        "meta_mean_motion": 14.09089747,
        "meta_eccentricity": 0.0076849,
        "meta_inclination": 98.735,
        "meta_ra_of_asc_node": 12.2604,
        "meta_arg_of_pericenter": 278.5219,
        "meta_mean_anomaly": 146.139,
        "meta_ephemeris_type": 0,
        "meta_classification_type": "U",
        "meta_norad_cat_id": 29786,
        "meta_element_set_no": 999,
        "meta_rev_at_epoch": 97281,
        "meta_bstar": 0.00011833,
        "meta_mean_motion_dot": 1.68e-06,
        "meta_mean_motion_ddot": 0,
        "tle_line1": "1 29786U 99025CC  25355.30389071  .00000168  00000+0  11833-3 0  9991",
        "tle_line2": "2 29786  98.7350  12.2604 0076849 278.5219 146.1390 14.09089747972819"
      },
      "geometry": {
        "type": "Point",
        "coordinates": [
          -160.12582376285042,
          37.209937691988536
        ]
      }
    },
    {
      "type": "Feature",
      "properties": {
        "norad_id": 29788,
        "name": "FENGYUN 1C DEB",
        "group": "fengyun-1c-debris",
        "lat": -63.09315790894123,
        "lon": 85.62698942586594,
        "alt_km": 833.2538089244863,
        "timestamp": "2025-12-22T05:49:03.770763+00:00",
        "meta_object_name": "FENGYUN 1C DEB",
        "meta_object_id": "1999-025CE",
        "meta_epoch": "2025-12-21T18:52:13.846368",
        "meta_mean_motion": 14.26034072,
        "meta_eccentricity": 0.0043142,
        "meta_inclination": 98.7835,
        "meta_ra_of_asc_node": 67.4317,
        "meta_arg_of_pericenter": 163.8685,
        "meta_mean_anomaly": 311.0172,
        "meta_ephemeris_type": 0,
        "meta_classification_type": "U",
        "meta_norad_cat_id": 29788,
        "meta_element_set_no": 999,
        "meta_rev_at_epoch": 97484,
        "meta_bstar": 0.0011983,
        "meta_mean_motion_dot": 2.845e-05,
        "meta_mean_motion_ddot": 0,
        "tle_line1": "1 29788U 99025CE  25355.78627137  .00002845  00000+0  11983-2 0  9992",
        "tle_line2": "2 29788  98.7835  67.4317 0043142 163.8685 311.0172 14.26034072974841"
      },
      "geometry": {
        "type": "Point",
        "coordinates": [
          85.62698942586594,
          -63.09315790894123
        ]
      }
    },
    {
      "type": "Feature",
      "properties": {
        "norad_id": 29789,
        "name": "FENGYUN 1C DEB",
        "group": "fengyun-1c-debris",
        "lat": 32.937234741055654,
        "lon": 4.830345359747677,
        "alt_km": 1118.3447145918653,
        "timestamp": "2025-12-22T05:49:03.770773+00:00",
        "meta_object_name": "FENGYUN 1C DEB",
        "meta_object_id": "1999-025CF",
        "meta_epoch": "2025-12-20T18:15:53.076672",
        "meta_mean_motion": 13.54257877,
        "meta_eccentricity": 0.02983159,
        "meta_inclination": 99.4514,
        "meta_ra_of_asc_node": 177.2174,
        "meta_arg_of_pericenter": 258.5605,
        "meta_mean_anomaly": 232.7158,
        "meta_ephemeris_type": 0,
        "meta_classification_type": "U",
        "meta_norad_cat_id": 29789,
        "meta_element_set_no": 999,
        "meta_rev_at_epoch": 93096,
        "meta_bstar": 0.0010393518,
        "meta_mean_motion_dot": 8.95e-06,
        "meta_mean_motion_ddot": 0,
        "tle_line1": "1 29789U 99025CF  25354.76103098  .00000895  00000+0  10394-2 0  9993",
        "tle_line2": "2 29789  99.4514 177.2174 0298315 258.5605 232.7158 13.54257877930961"
      },
      "geometry": {
        "type": "Point",
        "coordinates": [
          4.830345359747677,
          32.937234741055654
        ]
      }
    }
  ]
}